{
    "week": 295,
    "satellites": [
        {
            "Name": "BEIDOU-3 M13 (C32)",
            "Line1": "1 43622U 18072A   24334.65968236 -.00000037  00000+0  00000+0 0  9995",
            "Line2": "2 43622  56.1310  81.3675 0005253 290.3935  69.5318  1.86231096 42140",
            "SatelliteNumber": "43622",
            "Classification": "U",
            "LaunchYear": "18",
            "LaunchNumber": "072",
            "PieceOfLaunch": "A",
            "EpochYear": "24",
            "EpochDay": 334.65968236,
            "FirstDerivativeMeanMotion": -3.7e-07,
            "SecondDerivativeMeanMotion": "00000+0",
            "BSTAR": "00000+0",
            "SetNumber": "999",
            "Inclination": 56.131,
            "RAAN": 81.3675,
            "Eccentricity": 0.0005253,
            "ArgumentOfPerigee": 290.3935,
            "MeanAnomaly": 69.5318,
            "MeanMotion": 1.86231096,
            "RevolutionNumber": "4214"
        },
        {
            "Name": "BEIDOU-3 M14 (C33)",
            "Line1": "1 43623U 18072B   24335.06210518 -.00000035  00000+0  00000+0 0  9993",
            "Line2": "2 43623  56.1332  81.3475 0002680 327.7932  32.1729  1.86231063 42142",
            "SatelliteNumber": "43623",
            "Classification": "U",
            "LaunchYear": "18",
            "LaunchNumber": "072",
            "PieceOfLaunch": "B",
            "EpochYear": "24",
            "EpochDay": 335.06210518,
            "FirstDerivativeMeanMotion": -3.5e-07,
            "SecondDerivativeMeanMotion": "00000+0",
            "BSTAR": "00000+0",
            "SetNumber": "999",
            "Inclination": 56.1332,
            "RAAN": 81.3475,
            "Eccentricity": 0.000268,
            "ArgumentOfPerigee": 327.7932,
            "MeanAnomaly": 32.1729,
            "MeanMotion": 1.86231063,
            "RevolutionNumber": "4214"
        },
        {
            "Name": "BEIDOU-3 M16 (C35)",
            "Line1": "1 43647U 18078A   24335.22376019 -.00000068  00000+0  00000+0 0  9998",
            "Line2": "2 43647  54.5871 319.6762 0006877   7.6580 352.3515  1.86232361 41656",
            "SatelliteNumber": "43647",
            "Classification": "U",
            "LaunchYear": "18",
            "LaunchNumber": "078",
            "PieceOfLaunch": "A",
            "EpochYear": "24",
            "EpochDay": 335.22376019,
            "FirstDerivativeMeanMotion": -6.8e-07,
            "SecondDerivativeMeanMotion": "00000+0",
            "BSTAR": "00000+0",
            "SetNumber": "999",
            "Inclination": 54.5871,
            "RAAN": 319.6762,
            "Eccentricity": 0.0006877,
            "ArgumentOfPerigee": 7.658,
            "MeanAnomaly": 352.3515,
            "MeanMotion": 1.86232361,
            "RevolutionNumber": "4165"
        },
        {
            "Name": "BEIDOU-3 M15 (C34)",
            "Line1": "1 43648U 18078B   24335.35290030 -.00000068  00000+0  00000+0 0  9991",
            "Line2": "2 43648  54.5827 319.6739 0003611   3.9584 356.0433  1.86232218 41671",
            "SatelliteNumber": "43648",
            "Classification": "U",
            "LaunchYear": "18",
            "LaunchNumber": "078",
            "PieceOfLaunch": "B",
            "EpochYear": "24",
            "EpochDay": 335.3529003,
            "FirstDerivativeMeanMotion": -6.8e-07,
            "SecondDerivativeMeanMotion": "00000+0",
            "BSTAR": "00000+0",
            "SetNumber": "999",
            "Inclination": 54.5827,
            "RAAN": 319.6739,
            "Eccentricity": 0.0003611,
            "ArgumentOfPerigee": 3.9584,
            "MeanAnomaly": 356.0433,
            "MeanMotion": 1.86232218,
            "RevolutionNumber": "4167"
        },
        {
            "Name": "BEIDOU-3 G1 (C59)",
            "Line1": "1 43683U 18085A   24335.75674317 -.00000250  00000+0  00000+0 0  9999",
            "Line2": "2 43683   2.6033 103.7055 0001358  46.7008 332.1329  1.00267860 22404",
            "SatelliteNumber": "43683",
            "Classification": "U",
            "LaunchYear": "18",
            "LaunchNumber": "085",
            "PieceOfLaunch": "A",
            "EpochYear": "24",
            "EpochDay": 335.75674317,
            "FirstDerivativeMeanMotion": -2.5e-06,
            "SecondDerivativeMeanMotion": "00000+0",
            "BSTAR": "00000+0",
            "SetNumber": "999",
            "Inclination": 2.6033,
            "RAAN": 103.7055,
            "Eccentricity": 0.0001358,
            "ArgumentOfPerigee": 46.7008,
            "MeanAnomaly": 332.1329,
            "MeanMotion": 1.0026786,
            "RevolutionNumber": "2240"
        },
        {
            "Name": "BEIDOU-3 M17 (C36)",
            "Line1": "1 43706U 18093A   24332.28398389  .00000071  00000+0  00000+0 0  9991",
            "Line2": "2 43706  54.1966 201.5339 0006860 299.1251  60.9021  1.86228590 40985",
            "SatelliteNumber": "43706",
            "Classification": "U",
            "LaunchYear": "18",
            "LaunchNumber": "093",
            "PieceOfLaunch": "A",
            "EpochYear": "24",
            "EpochDay": 332.28398389,
            "FirstDerivativeMeanMotion": 7.1e-07,
            "SecondDerivativeMeanMotion": "00000+0",
            "BSTAR": "00000+0",
            "SetNumber": "999",
            "Inclination": 54.1966,
            "RAAN": 201.5339,
            "Eccentricity": 0.000686,
            "ArgumentOfPerigee": 299.1251,
            "MeanAnomaly": 60.9021,
            "MeanMotion": 1.8622859,
            "RevolutionNumber": "4098"
        },
        {
            "Name": "BEIDOU-3 M18 (C37)",
            "Line1": "1 43707U 18093B   24333.75885470  .00000087  00000+0  00000+0 0  9994",
            "Line2": "2 43707  54.1972 201.4755 0006524 338.9681  21.1081  1.86230124 41005",
            "SatelliteNumber": "43707",
            "Classification": "U",
            "LaunchYear": "18",
            "LaunchNumber": "093",
            "PieceOfLaunch": "B",
            "EpochYear": "24",
            "EpochDay": 333.7588547,
            "FirstDerivativeMeanMotion": 8.7e-07,
            "SecondDerivativeMeanMotion": "00000+0",
            "BSTAR": "00000+0",
            "SetNumber": "999",
            "Inclination": 54.1972,
            "RAAN": 201.4755,
            "Eccentricity": 0.0006524,
            "ArgumentOfPerigee": 338.9681,
            "MeanAnomaly": 21.1081,
            "MeanMotion": 1.86230124,
            "RevolutionNumber": "4100"
        },
        {
            "Name": "BEIDOU-3 IGSO-1 (C38)",
            "Line1": "1 44204U 19023A   24335.79927625 -.00000220  00000+0  00000+0 0  9996",
            "Line2": "2 44204  57.8872  43.4880 0025253 212.3505 218.0758  1.00252114 20712",
            "SatelliteNumber": "44204",
            "Classification": "U",
            "LaunchYear": "19",
            "LaunchNumber": "023",
            "PieceOfLaunch": "A",
            "EpochYear": "24",
            "EpochDay": 335.79927625,
            "FirstDerivativeMeanMotion": -2.2e-06,
            "SecondDerivativeMeanMotion": "00000+0",
            "BSTAR": "00000+0",
            "SetNumber": "999",
            "Inclination": 57.8872,
            "RAAN": 43.488,
            "Eccentricity": 0.0025253,
            "ArgumentOfPerigee": 212.3505,
            "MeanAnomaly": 218.0758,
            "MeanMotion": 1.00252114,
            "RevolutionNumber": "2071"
        },
        {
            "Name": "BEIDOU-2 G8 (C01)",
            "Line1": "1 44231U 19027A   24332.65993824 -.00000225  00000+0  00000+0 0  9991",
            "Line2": "2 44231   1.8833  74.7117 0004821 201.4855 172.8660  1.00267086 20402",
            "SatelliteNumber": "44231",
            "Classification": "U",
            "LaunchYear": "19",
            "LaunchNumber": "027",
            "PieceOfLaunch": "A",
            "EpochYear": "24",
            "EpochDay": 332.65993824,
            "FirstDerivativeMeanMotion": -2.25e-06,
            "SecondDerivativeMeanMotion": "00000+0",
            "BSTAR": "00000+0",
            "SetNumber": "999",
            "Inclination": 1.8833,
            "RAAN": 74.7117,
            "Eccentricity": 0.0004821,
            "ArgumentOfPerigee": 201.4855,
            "MeanAnomaly": 172.866,
            "MeanMotion": 1.00267086,
            "RevolutionNumber": "2040"
        },
        {
            "Name": "BEIDOU-3 IGSO-2 (C39)",
            "Line1": "1 44337U 19035A   24322.83050358 -.00000064  00000+0  00000+0 0  9993",
            "Line2": "2 44337  55.1861 163.9216 0034767 201.0257 107.1426  1.00249229 19887",
            "SatelliteNumber": "44337",
            "Classification": "U",
            "LaunchYear": "19",
            "LaunchNumber": "035",
            "PieceOfLaunch": "A",
            "EpochYear": "24",
            "EpochDay": 322.83050358,
            "FirstDerivativeMeanMotion": -6.4e-07,
            "SecondDerivativeMeanMotion": "00000+0",
            "BSTAR": "00000+0",
            "SetNumber": "999",
            "Inclination": 55.1861,
            "RAAN": 163.9216,
            "Eccentricity": 0.0034767,
            "ArgumentOfPerigee": 201.0257,
            "MeanAnomaly": 107.1426,
            "MeanMotion": 1.00249229,
            "RevolutionNumber": "1988"
        }
    ]
}